start=new Date('2022-02-24T00:00:00.000Z').valueOf();
sats=[{"COUNTRY_CODE":"US","EPHEMERIS_TYPE":"0","OBJECT_TYPE":"PAYLOAD","DECAY_DATE":null,"NORAD_CAT_ID":"49456","OBJECT_NAME":"STARLINK-3124","REF_FRAME":"TEME","CENTER_NAME":"EARTH","MEAN_ANOMALY":"55.1407","INCLINATION":"53.2168","FILE":"3317219","LAUNCH_DATE":"2021-11-13","MEAN_ELEMENT_THEORY":"SGP4","ELEMENT_SET_NO":"999","GP_ID":"196786824","ECCENTRICITY":"0.00017300","OBJECT_ID":"2021-104BA","TIME_SYSTEM":"UTC","RA_OF_ASC_NODE":"359.6153","MEAN_MOTION":"15.08834399","TLE_LINE2":"2 49456  53.2168 359.6153 0001730  37.2184  55.1407 15.08834399  3615","APOAPSIS":"540.959","SITE":"AFETR","RCS_SIZE":"LARGE","EPOCH":"2022-02-23T22:00:00.999936","MEAN_MOTION_DOT":"-0.00005651","TLE_LINE1":"1 49456U 21104BA  22054.91667824 -.00005651  00000-0 -33725-3 0  9994","MEAN_MOTION_DDOT":"0.0000000000000","PERIOD":"95.438","SEMIMAJOR_AXIS":"6917.898","BSTAR":"-0.00033725000000","PERIAPSIS":"538.566","CLASSIFICATION_TYPE":"U","ARG_OF_PERICENTER":"37.2184","REV_AT_EPOCH":"361"},{"SEMIMAJOR_AXIS":"6917.879","BSTAR":"-0.00230880000000","PERIOD":"95.438","REV_AT_EPOCH":"361","ARG_OF_PERICENTER":"49.0910","CLASSIFICATION_TYPE":"U","PERIAPSIS":"538.453","SITE":"AFETR","RCS_SIZE":"LARGE","TLE_LINE2":"2 49457  53.2161 359.6173 0001866  49.0910 103.2675 15.08840434  3618","APOAPSIS":"541.035","MEAN_MOTION":"15.08840434","RA_OF_ASC_NODE":"359.6173","MEAN_MOTION_DDOT":"0.0000000000000","TLE_LINE1":"1 49457U 21104BB  22054.91667824 -.00036846  00000-0 -23088-2 0  9995","EPOCH":"2022-02-23T22:00:00.999936","MEAN_MOTION_DOT":"-0.00036846","MEAN_ELEMENT_THEORY":"SGP4","ELEMENT_SET_NO":"999","GP_ID":"196787074","LAUNCH_DATE":"2021-11-13","FILE":"3317219","INCLINATION":"53.2161","OBJECT_ID":"2021-104BB","TIME_SYSTEM":"UTC","ECCENTRICITY":"0.00018660","OBJECT_NAME":"STARLINK-3132","NORAD_CAT_ID":"49457","DECAY_DATE":null,"COUNTRY_CODE":"US","OBJECT_TYPE":"PAYLOAD","EPHEMERIS_TYPE":"0","MEAN_ANOMALY":"103.2675","CENTER_NAME":"EARTH","REF_FRAME":"TEME"},{"MEAN_ANOMALY":"64.5172","CENTER_NAME":"EARTH","REF_FRAME":"TEME","OBJECT_NAME":"STARLINK-3156","NORAD_CAT_ID":"49458","DECAY_DATE":null,"COUNTRY_CODE":"US","EPHEMERIS_TYPE":"0","OBJECT_TYPE":"PAYLOAD","TIME_SYSTEM":"UTC","OBJECT_ID":"2021-104BC","ECCENTRICITY":"0.00017410","ELEMENT_SET_NO":"999","GP_ID":"196787826","MEAN_ELEMENT_THEORY":"SGP4","LAUNCH_DATE":"2021-11-13","FILE":"3317219","INCLINATION":"53.2155","MEAN_MOTION_DDOT":"0.0000000000000","TLE_LINE1":"1 49458U 21104BC  22054.91667824 -.00053170  00000-0 -33443-2 0  9991","EPOCH":"2022-02-23T22:00:00.999936","MEAN_MOTION_DOT":"-0.00053170","RCS_SIZE":"LARGE","SITE":"AFETR","APOAPSIS":"540.845","TLE_LINE2":"2 49458  53.2155 359.6160 0001741  47.7988  64.5172 15.08874416  3618","MEAN_MOTION":"15.08874416","RA_OF_ASC_NODE":"359.6160","REV_AT_EPOCH":"361","ARG_OF_PERICENTER":"47.7988","CLASSIFICATION_TYPE":"U","PERIAPSIS":"538.436","BSTAR":"-0.00334430000000","SEMIMAJOR_AXIS":"6917.775","PERIOD":"95.435"},{"MEAN_ANOMALY":"125.1297","REF_FRAME":"TEME","CENTER_NAME":"EARTH","NORAD_CAT_ID":"49459","OBJECT_NAME":"STARLINK-3141","OBJECT_TYPE":"PAYLOAD","COUNTRY_CODE":"US","EPHEMERIS_TYPE":"0","DECAY_DATE":null,"ECCENTRICITY":"0.00018250","TIME_SYSTEM":"UTC","OBJECT_ID":"2021-104BD","ELEMENT_SET_NO":"999","GP_ID":"196788577","MEAN_ELEMENT_THEORY":"SGP4","INCLINATION":"53.2166","FILE":"3317219","LAUNCH_DATE":"2021-11-13","TLE_LINE1":"1 49459U 21104BD  22054.91667824 -.00012414  00000-0 -76322-3 0  9992","MEAN_MOTION_DDOT":"0.0000000000000","EPOCH":"2022-02-23T22:00:00.999936","MEAN_MOTION_DOT":"-0.00012414","APOAPSIS":"541.011","TLE_LINE2":"2 49459  53.2166 359.6165 0001825  47.1547 125.1297 15.08839094  3619","RCS_SIZE":"LARGE","SITE":"AFETR","RA_OF_ASC_NODE":"359.6165","MEAN_MOTION":"15.08839094","CLASSIFICATION_TYPE":"U","ARG_OF_PERICENTER":"47.1547","REV_AT_EPOCH":"361","PERIAPSIS":"538.486","PERIOD":"95.438","BSTAR":"-0.00076322000000","SEMIMAJOR_AXIS":"6917.883"},{"DECAY_DATE":null,"OBJECT_TYPE":"PAYLOAD","COUNTRY_CODE":"US","EPHEMERIS_TYPE":"0","OBJECT_NAME":"STARLINK-3140","NORAD_CAT_ID":"49460","CENTER_NAME":"EARTH","REF_FRAME":"TEME","MEAN_ANOMALY":"142.9002","LAUNCH_DATE":"2021-11-13","FILE":"3317219","INCLINATION":"53.2178","MEAN_ELEMENT_THEORY":"SGP4","GP_ID":"196787325","ELEMENT_SET_NO":"999","OBJECT_ID":"2021-104BE","TIME_SYSTEM":"UTC","ECCENTRICITY":"0.00018310","MEAN_MOTION":"15.08777130","RA_OF_ASC_NODE":"359.6305","SITE":"AFETR","RCS_SIZE":"LARGE","TLE_LINE2":"2 49460  53.2178 359.6305 0001831  49.4371 142.9002 15.08777130  3610","APOAPSIS":"541.204","MEAN_MOTION_DOT":"-0.00003612","EPOCH":"2022-02-23T22:00:00.999936","MEAN_MOTION_DDOT":"0.0000000000000","TLE_LINE1":"1 49460U 21104BE  22054.91667824 -.00003612  00000-0 -20934-3 0  9992","SEMIMAJOR_AXIS":"6918.073","BSTAR":"-0.00020934000000","PERIOD":"95.442","PERIAPSIS":"538.671","REV_AT_EPOCH":"361","ARG_OF_PERICENTER":"49.4371","CLASSIFICATION_TYPE":"U"},{"LAUNCH_DATE":"2021-12-02","FILE":"3317219","INCLINATION":"53.2133","GP_ID":"196787099","ELEMENT_SET_NO":"999","MEAN_ELEMENT_THEORY":"SGP4","TIME_SYSTEM":"UTC","OBJECT_ID":"2021-115A","ECCENTRICITY":"0.00019250","DECAY_DATE":null,"COUNTRY_CODE":"US","OBJECT_TYPE":"PAYLOAD","EPHEMERIS_TYPE":"0","OBJECT_NAME":"STARLINK-3219","NORAD_CAT_ID":"49724","CENTER_NAME":"EARTH","REF_FRAME":"TEME","MEAN_ANOMALY":"234.6608","BSTAR":"-0.00072109000000","SEMIMAJOR_AXIS":"6917.854","PERIOD":"95.437","PERIAPSIS":"538.388","REV_AT_EPOCH":"362","ARG_OF_PERICENTER":"57.4774","CLASSIFICATION_TYPE":"U","MEAN_MOTION":"15.08848526","RA_OF_ASC_NODE":"289.6718","RCS_SIZE":"LARGE","SITE":"AFETR","APOAPSIS":"541.051","TLE_LINE2":"2 49724  53.2133 289.6718 0001925  57.4774 234.6608 15.08848526  3624","EPOCH":"2022-02-23T22:00:00.999936","MEAN_MOTION_DOT":"-0.00011749","MEAN_MOTION_DDOT":"0.0000000000000","TLE_LINE1":"1 49724U 21115A   22054.91667824 -.00011749  00000-0 -72109-3 0  9998"},{"NORAD_CAT_ID":"49725","OBJECT_NAME":"STARLINK-3218","COUNTRY_CODE":"US","EPHEMERIS_TYPE":"0","OBJECT_TYPE":"PAYLOAD","DECAY_DATE":null,"MEAN_ANOMALY":"61.3390","REF_FRAME":"TEME","CENTER_NAME":"EARTH","MEAN_ELEMENT_THEORY":"SGP4","ELEMENT_SET_NO":"999","GP_ID":"196787851","INCLINATION":"53.2170","FILE":"3317219","LAUNCH_DATE":"2021-12-02","ECCENTRICITY":"0.00016550","OBJECT_ID":"2021-115B","TIME_SYSTEM":"UTC","TLE_LINE2":"2 49725  53.2170 289.6166 0001655  50.7363  61.3390 15.08856189  3619","APOAPSIS":"540.841","SITE":"AFETR","RCS_SIZE":"LARGE","RA_OF_ASC_NODE":"289.6166","MEAN_MOTION":"15.08856189","TLE_LINE1":"1 49725U 21115B   22054.91667824 -.00031302  00000-0 -19563-2 0  9990","MEAN_MOTION_DDOT":"0.0000000000000","EPOCH":"2022-02-23T22:00:00.999936","MEAN_MOTION_DOT":"-0.00031302","PERIOD":"95.437","SEMIMAJOR_AXIS":"6917.831","BSTAR":"-0.00195630000000","CLASSIFICATION_TYPE":"U","ARG_OF_PERICENTER":"50.7363","REV_AT_EPOCH":"361","PERIAPSIS":"538.551"},{"MEAN_ANOMALY":"276.6008","REF_FRAME":"TEME","CENTER_NAME":"EARTH","NORAD_CAT_ID":"49726","OBJECT_NAME":"STARLINK-3237","EPHEMERIS_TYPE":"0","COUNTRY_CODE":"US","OBJECT_TYPE":"PAYLOAD","DECAY_DATE":null,"ECCENTRICITY":"0.00027290","TIME_SYSTEM":"UTC","OBJECT_ID":"2021-115C","ELEMENT_SET_NO":"999","GP_ID":"196788602","MEAN_ELEMENT_THEORY":"SGP4","INCLINATION":"53.2169","FILE":"3317219","LAUNCH_DATE":"2021-12-02","TLE_LINE1":"1 49726U 21115C   22054.91667824 -.00024014  00000-0 -14957-2 0  9995","MEAN_MOTION_DDOT":"0.0000000000000","EPOCH":"2022-02-23T22:00:00.999936","MEAN_MOTION_DOT":"-0.00024014","APOAPSIS":"541.639","TLE_LINE2":"2 49726  53.2169 299.6270 0002729  45.7050 276.6008 15.08838256  3606","RCS_SIZE":"LARGE","SITE":"AFETR","RA_OF_ASC_NODE":"299.6270","MEAN_MOTION":"15.08838256","CLASSIFICATION_TYPE":"U","ARG_OF_PERICENTER":"45.7050","REV_AT_EPOCH":"360","PERIAPSIS":"537.863","PERIOD":"95.438","BSTAR":"-0.00149570000000","SEMIMAJOR_AXIS":"6917.886"},{"CENTER_NAME":"EARTH","REF_FRAME":"TEME","MEAN_ANOMALY":"251.5402","DECAY_DATE":null,"EPHEMERIS_TYPE":"0","COUNTRY_CODE":"US","OBJECT_TYPE":"PAYLOAD","OBJECT_NAME":"STARLINK-3242","NORAD_CAT_ID":"49727","OBJECT_ID":"2021-115D","TIME_SYSTEM":"UTC","ECCENTRICITY":"0.00027410","LAUNCH_DATE":"2021-12-02","INCLINATION":"53.2160","FILE":"3317219","MEAN_ELEMENT_THEORY":"SGP4","ELEMENT_SET_NO":"999","GP_ID":"196787350","MEAN_MOTION_DOT":"-0.00015429","EPOCH":"2022-02-23T22:00:00.999936","MEAN_MOTION_DDOT":"0.0000000000000","TLE_LINE1":"1 49727U 21115D   22054.91667824 -.00015429  00000-0 -95298-3 0  9994","MEAN_MOTION":"15.08852097","RA_OF_ASC_NODE":"299.6378","SITE":"AFETR","RCS_SIZE":"LARGE","TLE_LINE2":"2 49727  53.2160 299.6378 0002741  50.7031 251.5402 15.08852097  3605","APOAPSIS":"541.605","PERIAPSIS":"537.812","REV_AT_EPOCH":"360","ARG_OF_PERICENTER":"50.7031","CLASSIFICATION_TYPE":"U","SEMIMAJOR_AXIS":"6917.843","BSTAR":"-0.00095298000000","PERIOD":"95.437"},{"EPOCH":"2022-02-23T22:00:00.999936","MEAN_MOTION_DOT":"-0.00014359","TLE_LINE1":"1 49728U 21115E   22054.91667824 -.00014359  00000-0 -88567-3 0  9997","MEAN_MOTION_DDOT":"0.0000000000000","RA_OF_ASC_NODE":"299.6404","MEAN_MOTION":"15.08842577","APOAPSIS":"541.896","TLE_LINE2":"2 49728  53.2163 299.6404 0003120  57.4929 224.8247 15.08842577  3603","RCS_SIZE":"LARGE","SITE":"AFETR","PERIAPSIS":"537.579","ARG_OF_PERICENTER":"57.4929","CLASSIFICATION_TYPE":"U","REV_AT_EPOCH":"360","PERIOD":"95.437","BSTAR":"-0.00088567000000","SEMIMAJOR_AXIS":"6917.873","REF_FRAME":"TEME","CENTER_NAME":"EARTH","MEAN_ANOMALY":"224.8247","COUNTRY_CODE":"US","OBJECT_TYPE":"PAYLOAD","EPHEMERIS_TYPE":"0","DECAY_DATE":null,"NORAD_CAT_ID":"49728","OBJECT_NAME":"STARLINK-3240","ECCENTRICITY":"0.00031200","TIME_SYSTEM":"UTC","OBJECT_ID":"2021-115E","INCLINATION":"53.2163","FILE":"3317219","LAUNCH_DATE":"2021-12-02","GP_ID":"196787600","ELEMENT_SET_NO":"999","MEAN_ELEMENT_THEORY":"SGP4"}];
